{
  "type": "FeatureCollection",
  "name": "Seguridad_Indica_Barrios_CDMX",
  "crs": { "type": "name", "properties": { "name": "urn:ogc:def:crs:EPSG::4326" } },
  "features": [
    {
      "type": "Feature",
      "properties": {
        "CMNOMSCAT": "CUAUHTEMOC",
        "IndicadorSeguridad": 20.5,
        "IndicadorInseguridad": "1000.0",
        "TasaSeguridadInseguridad": "0.02",
        "tasacalificada": 3
      },
      "geometry": {
        "type": "Polygon",
        "coordinates": [
          [
            [ -99.1678, 19.4445 ],
            [ -99.1306, 19.4445 ],
            [ -99.1306, 19.4055 ],
            [ -99.1678, 19.4055 ],
            [ -99.1678, 19.4445 ]
          ]
        ]
      }
    },
    {
      "type": "Feature",
      "properties": {
        "CMNOMSCAT": "MIGUEL HIDALGO",
        "IndicadorSeguridad": 30.2,
        "IndicadorInseguridad": "800.0",
        "TasaSeguridadInseguridad": "0.03",
        "tasacalificada": 4
      },
      "geometry": {
        "type": "Polygon",
        "coordinates": [
          [
            [ -99.2312, 19.4502 ],
            [ -99.1678, 19.4502 ],
            [ -99.1678, 19.3980 ],
            [ -99.2312, 19.3980 ],
            [ -99.2312, 19.4502 ]
          ]
        ]
      }
    },
    {
      "type": "Feature",
      "properties": {
        "CMNOMSCAT": "BENITO JUAREZ",
        "IndicadorSeguridad": 40.5,
        "IndicadorInseguridad": "600.0",
        "TasaSeguridadInseguridad": "0.06",
        "tasacalificada": 4
      },
      "geometry": {
        "type": "Polygon",
        "coordinates": [
          [
            [ -99.1915, 19.4055 ],
            [ -99.1350, 19.4055 ],
            [ -99.1350, 19.3592 ],
            [ -99.1915, 19.3592 ],
            [ -99.1915, 19.4055 ]
          ]
        ]
      }
    },
    {
      "type": "Feature",
      "properties": {
        "CMNOMSCAT": "COYOACAN",
        "IndicadorSeguridad": 35.5,
        "IndicadorInseguridad": "700.0",
        "TasaSeguridadInseguridad": "0.05",
        "tasacalificada": 4
      },
      "geometry": {
        "type": "Polygon",
        "coordinates": [
          [
            [ -99.1915, 19.3592 ],
            [ -99.1000, 19.3592 ],
            [ -99.1000, 19.2900 ],
            [ -99.1915, 19.2900 ],
            [ -99.1915, 19.3592 ]
          ]
        ]
      }
    },
    {
      "type": "Feature",
      "properties": {
        "CMNOMSCAT": "ALVARO OBREGON",
        "IndicadorSeguridad": 25.0,
        "IndicadorInseguridad": "900.0",
        "TasaSeguridadInseguridad": "0.02",
        "tasacalificada": 3
      },
      "geometry": {
        "type": "Polygon",
        "coordinates": [
          [
            [ -99.3000, 19.3980 ],
            [ -99.1915, 19.3980 ],
            [ -99.1915, 19.3000 ],
            [ -99.3000, 19.3000 ],
            [ -99.3000, 19.3980 ]
          ]
        ]
      }
    },
    {
      "type": "Feature",
      "properties": {
        "CMNOMSCAT": "TLALPAN",
        "IndicadorSeguridad": 15.0,
        "IndicadorInseguridad": "1200.0",
        "TasaSeguridadInseguridad": "0.01",
        "tasacalificada": 2
      },
      "geometry": {
        "type": "Polygon",
        "coordinates": [
          [
            [ -99.3000, 19.3000 ],
            [ -99.1000, 19.3000 ],
            [ -99.1000, 19.0500 ],
            [ -99.3000, 19.0500 ],
            [ -99.3000, 19.3000 ]
          ]
        ]
      }
    },
    {
      "type": "Feature",
      "properties": {
        "CMNOMSCAT": "IZTAPALAPA",
        "IndicadorSeguridad": 10.0,
        "IndicadorInseguridad": "1500.0",
        "TasaSeguridadInseguridad": "0.005",
        "tasacalificada": 2
      },
      "geometry": {
        "type": "Polygon",
        "coordinates": [
          [
            [ -99.1306, 19.4055 ],
            [ -98.9800, 19.4055 ],
            [ -98.9800, 19.3000 ],
            [ -99.1306, 19.3000 ],
            [ -99.1306, 19.4055 ]
          ]
        ]
      }
    },
    {
      "type": "Feature",
      "properties": {
        "CMNOMSCAT": "GUSTAVO A. MADERO",
        "IndicadorSeguridad": 12.0,
        "IndicadorInseguridad": "1400.0",
        "TasaSeguridadInseguridad": "0.008",
        "tasacalificada": 2
      },
      "geometry": {
        "type": "Polygon",
        "coordinates": [
          [
            [ -99.1678, 19.5500 ],
            [ -99.0500, 19.5500 ],
            [ -99.0500, 19.4445 ],
            [ -99.1678, 19.4445 ],
            [ -99.1678, 19.5500 ]
          ]
        ]
      }
    },
    {
      "type": "Feature",
      "properties": {
        "CMNOMSCAT": "VENUSTIANO CARRANZA",
        "IndicadorSeguridad": 18.0,
        "IndicadorInseguridad": "1100.0",
        "TasaSeguridadInseguridad": "0.015",
        "tasacalificada": 3
      },
      "geometry": {
        "type": "Polygon",
        "coordinates": [
          [
            [ -99.1306, 19.4500 ],
            [ -99.0500, 19.4500 ],
            [ -99.0500, 19.4055 ],
            [ -99.1306, 19.4055 ],
            [ -99.1306, 19.4500 ]
          ]
        ]
      }
    }
  ]
}